{"type": "FeatureCollection", "features": [ {"type": "Feature", "properties": {"norad_id": 36058, "name": "COSMOS 2251 DEB", "group": "cosmos-2251-debris", "lat": -58.90315651942651, "lon": -98.57721685257137, "alt_km": 685.2671219078684, "timestamp": "2025-12-02T10:50:47.672904+00:00", "meta": {"OBJECT_NAME": "COSMOS 2251 DEB", "OBJECT_ID": "1993-036AXV", "EPOCH": "2025-11-30T23:10:11.236512", "MEAN_MOTION": 14.58588608, "ECCENTRICITY": 0.00452994, "INCLINATION": 74.0241, "RA_OF_ASC_NODE": 55.8971, "ARG_OF_PERICENTER": 192.6971, "MEAN_ANOMALY": 167.3058, "EPHEMERIS_TYPE": 0, "CLASSIFICATION_TYPE": "U", "NORAD_CAT_ID": 36058, "ELEMENT_SET_NO": 999, "REV_AT_EPOCH": 65939, "BSTAR": 0.00077118146, "MEAN_MOTION_DOT": 3.611e-05, "MEAN_MOTION_DDOT": 0}, "tle": {"line1": "1 36058U 93036AXV 25334.96540783  .00003611  00000+0  77118-3 0  9999", "line2": "2 36058  74.0241  55.8971 0045299 192.6971 167.3058 14.58588608659396"}}, "geometry": {"type": "Point", "coordinates": [-98.57721685257137, -58.90315651942651]}}, {"type": "Feature", "properties": {"norad_id": 36060, "name": "COSMOS 2251 DEB", "group": "cosmos-2251-debris", "lat": 40.006219564663716, "lon": -92.44939189268165, "alt_km": 741.7679975131741, "timestamp": "2025-12-02T10:50:47.672914+00:00", "meta": {"OBJECT_NAME": "COSMOS 2251 DEB", "OBJECT_ID": "1993-036AXX", "EPOCH": "2025-12-02T00:39:45.633600", "MEAN_MOTION": 14.41957589, "ECCENTRICITY": 0.0014894, "INCLINATION": 74.0292, "RA_OF_ASC_NODE": 254.4297, "ARG_OF_PERICENTER": 352.6862, "MEAN_ANOMALY": 7.4074, "EPHEMERIS_TYPE": 0, "CLASSIFICATION_TYPE": "U", "NORAD_CAT_ID": 36060, "ELEMENT_SET_NO": 999, "REV_AT_EPOCH": 84855, "BSTAR": 0.00041599, "MEAN_MOTION_DOT": 1.339e-05, "MEAN_MOTION_DDOT": 0}, "tle": {"line1": "1 36060U 93036AXX 25336.02761150  .00001339  00000+0  41599-3 0  9993", "line2": "2 36060  74.0292 254.4297 0014894 352.6862   7.4074 14.41957589848557"}}, "geometry": {"type": "Point", "coordinates": [-92.44939189268165, 40.006219564663716]}}, {"type": "Feature", "properties": {"norad_id": 36061, "name": "COSMOS 2251 DEB", "group": "cosmos-2251-debris", "lat": 9.18969509017431, "lon": -164.06358466370506, "alt_km": 767.6081399028071, "timestamp": "2025-12-02T10:50:47.672924+00:00", "meta": {"OBJECT_NAME": "COSMOS 2251 DEB", "OBJECT_ID": "1993-036AXY", "EPOCH": "2025-11-30T09:29:32.534016", "MEAN_MOTION": 14.3367716, "ECCENTRICITY": 0.00369647, "INCLINATION": 74.0247, "RA_OF_ASC_NODE": 22.3548, "ARG_OF_PERICENTER": 114.2719, "MEAN_ANOMALY": 246.2301, "EPHEMERIS_TYPE": 0, "CLASSIFICATION_TYPE": "U", "NORAD_CAT_ID": 36061, "ELEMENT_SET_NO": 999, "REV_AT_EPOCH": 64927, "BSTAR": 0.00028741417, "MEAN_MOTION_DOT": 7.78e-06, "MEAN_MOTION_DDOT": 0}, "tle": {"line1": "1 36061U 93036AXY 25334.39551544  .00000778  00000+0  28741-3 0  9996", "line2": "2 36061  74.0247  22.3548 0036964 114.2719 246.2301 14.33677160649273"}}, "geometry": {"type": "Point", "coordinates": [-164.06358466370506, 9.18969509017431]}}, {"type": "Feature", "properties": {"norad_id": 36073, "name": "COSMOS 2251 DEB", "group": "cosmos-2251-debris", "lat": -38.59043719444701, "lon": 174.62773476597175, "alt_km": 797.7430795066957, "timestamp": "2025-12-02T10:50:47.672934+00:00", "meta": {"OBJECT_NAME": "COSMOS 2251 DEB", "OBJECT_ID": "1993-036AYL", "EPOCH": "2025-12-01T08:43:32.794464", "MEAN_MOTION": 14.34928721, "ECCENTRICITY": 0.00234073, "INCLINATION": 74.0321, "RA_OF_ASC_NODE": 343.4137, "ARG_OF_PERICENTER": 54.867, "MEAN_ANOMALY": 305.4671, "EPHEMERIS_TYPE": 0, "CLASSIFICATION_TYPE": "U", "NORAD_CAT_ID": 36073, "ELEMENT_SET_NO": 999, "REV_AT_EPOCH": 70044, "BSTAR": 0.00025558924, "MEAN_MOTION_DOT": 7.03e-06, "MEAN_MOTION_DDOT": 0}, "tle": {"line1": "1 36073U 93036AYL 25335.36357401  .00000703  00000+0  25559-3 0  9995", "line2": "2 36073  74.0321 343.4137 0023407  54.8670 305.4671 14.34928721700441"}}, "geometry": {"type": "Point", "coordinates": [174.62773476597175, -38.59043719444701]}}, {"type": "Feature", "properties": {"norad_id": 36074, "name": "COSMOS 2251 DEB", "group": "cosmos-2251-debris", "lat": 31.70657233511896, "lon": 9.879552970204113, "alt_km": 730.3395459126341, "timestamp": "2025-12-02T10:50:47.672944+00:00", "meta": {"OBJECT_NAME": "COSMOS 2251 DEB", "OBJECT_ID": "1993-036AYM", "EPOCH": "2025-11-30T08:47:56.269536", "MEAN_MOTION": 14.43612377, "ECCENTRICITY": 0.00417412, "INCLINATION": 73.9972, "RA_OF_ASC_NODE": 3.551, "ARG_OF_PERICENTER": 99.6494, "MEAN_ANOMALY": 260.9382, "EPHEMERIS_TYPE": 0, "CLASSIFICATION_TYPE": "U", "NORAD_CAT_ID": 36074, "ELEMENT_SET_NO": 999, "REV_AT_EPOCH": 85731, "BSTAR": 0.00086426668, "MEAN_MOTION_DOT": 2.936e-05, "MEAN_MOTION_DDOT": 0}, "tle": {"line1": "1 36074U 93036AYM 25334.36662349  .00002936  00000+0  86427-3 0  9996", "line2": "2 36074  73.9972   3.5510 0041741  99.6494 260.9382 14.43612377857313"}}, "geometry": {"type": "Point", "coordinates": [9.879552970204113, 31.70657233511896]}}, {"type": "Feature", "properties": {"norad_id": 36366, "name": "COSMOS 2251 DEB", "group": "cosmos-2251-debris", "lat": -6.568448092904319, "lon": -70.04083752400577, "alt_km": 728.6143374683597, "timestamp": "2025-12-02T10:50:47.672954+00:00", "meta": {"OBJECT_NAME": "COSMOS 2251 DEB", "OBJECT_ID": "1993-036AYT", "EPOCH": "2025-11-28T08:02:10.406688", "MEAN_MOTION": 14.33134249, "ECCENTRICITY": 0.00911485, "INCLINATION": 74.066, "RA_OF_ASC_NODE": 299.352, "ARG_OF_PERICENTER": 330.5257, "MEAN_ANOMALY": 29.0771, "EPHEMERIS_TYPE": 0, "CLASSIFICATION_TYPE": "U", "NORAD_CAT_ID": 36366, "ELEMENT_SET_NO": 999, "REV_AT_EPOCH": 86082, "BSTAR": 0.0023153549, "MEAN_MOTION_DOT": 6.635e-05, "MEAN_MOTION_DDOT": 0}, "tle": {"line1": "1 36366U 93036AYT 25332.33484267  .00006635  00000+0  23154-2 0  9993", "line2": "2 36366  74.0660 299.3520 0091148 330.5257  29.0771 14.33134249860821"}}, "geometry": {"type": "Point", "coordinates": [-70.04083752400577, -6.568448092904319]}}, {"type": "Feature", "properties": {"norad_id": 36367, "name": "COSMOS 2251 DEB", "group": "cosmos-2251-debris", "lat": -29.470676057637714, "lon": -120.49618132849655, "alt_km": 755.7581638543879, "timestamp": "2025-12-02T10:50:47.672965+00:00", "meta": {"OBJECT_NAME": "COSMOS 2251 DEB", "OBJECT_ID": "1993-036AYU", "EPOCH": "2025-12-01T12:28:20.175744", "MEAN_MOTION": 13.86234419, "ECCENTRICITY": 0.02628434, "INCLINATION": 74.101, "RA_OF_ASC_NODE": 250.3439, "ARG_OF_PERICENTER": 325.6692, "MEAN_ANOMALY": 32.7682, "EPHEMERIS_TYPE": 0, "CLASSIFICATION_TYPE": "U", "NORAD_CAT_ID": 36367, "ELEMENT_SET_NO": 999, "REV_AT_EPOCH": 57374, "BSTAR": 0.0014810929, "MEAN_MOTION_DOT": 2.22e-05, "MEAN_MOTION_DDOT": 0}, "tle": {"line1": "1 36367U 93036AYU 25335.51967796  .00002220  00000+0  14811-2 0  9996", "line2": "2 36367  74.1010 250.3439 0262843 325.6692  32.7682 13.86234419573749"}}, "geometry": {"type": "Point", "coordinates": [-120.49618132849655, -29.470676057637714]}}, {"type": "Feature", "properties": {"norad_id": 36369, "name": "COSMOS 2251 DEB", "group": "cosmos-2251-debris", "lat": 32.82508778125973, "lon": -99.85617646347185, "alt_km": 640.4167071976408, "timestamp": "2025-12-02T10:50:47.672977+00:00", "meta": {"OBJECT_NAME": "COSMOS 2251 DEB", "OBJECT_ID": "1993-036AYW", "EPOCH": "2025-11-30T01:08:42.829152", "MEAN_MOTION": 14.73166541, "ECCENTRICITY": 0.0012825, "INCLINATION": 74.0295, "RA_OF_ASC_NODE": 95.4744, "ARG_OF_PERICENTER": 177.797, "MEAN_ANOMALY": 182.3261, "EPHEMERIS_TYPE": 0, "CLASSIFICATION_TYPE": "U", "NORAD_CAT_ID": 36369, "ELEMENT_SET_NO": 999, "REV_AT_EPOCH": 85735, "BSTAR": 0.0020643, "MEAN_MOTION_DOT": 0.00013323, "MEAN_MOTION_DDOT": 0}, "tle": {"line1": "1 36369U 93036AYW 25334.04771793  .00013323  00000+0  20643-2 0  9991", "line2": "2 36369  74.0295  95.4744 0012825 177.7970 182.3261 14.73166541857354"}}, "geometry": {"type": "Point", "coordinates": [-99.85617646347185, 32.82508778125973]}}, {"type": "Feature", "properties": {"norad_id": 36371, "name": "COSMOS 2251 DEB", "group": "cosmos-2251-debris", "lat": 13.606272086515142, "lon": -2.4573877554053083, "alt_km": 656.6157975477236, "timestamp": "2025-12-02T10:50:47.672987+00:00", "meta": {"OBJECT_NAME": "COSMOS 2251 DEB", "OBJECT_ID": "1993-036AYY", "EPOCH": "2025-11-30T20:32:02.763456", "MEAN_MOTION": 14.70225787, "ECCENTRICITY": 0.00108974, "INCLINATION": 74.0137, "RA_OF_ASC_NODE": 184.6205, "ARG_OF_PERICENTER": 224.8098, "MEAN_ANOMALY": 135.2194, "EPHEMERIS_TYPE": 0, "CLASSIFICATION_TYPE": "U", "NORAD_CAT_ID": 36371, "ELEMENT_SET_NO": 999, "REV_AT_EPOCH": 71270, "BSTAR": 0.0018017068, "MEAN_MOTION_DOT": 0.00010857, "MEAN_MOTION_DDOT": 0}, "tle": {"line1": "1 36371U 93036AYY 25334.85558754  .00010857  00000+0  18017-2 0  9994", "line2": "2 36371  74.0137 184.6205 0010897 224.8098 135.2194 14.70225787712703"}}, "geometry": {"type": "Point", "coordinates": [-2.4573877554053083, 13.606272086515142]}}, {"type": "Feature", "properties": {"norad_id": 36379, "name": "COSMOS 2251 DEB", "group": "cosmos-2251-debris", "lat": 18.584563832257682, "lon": 140.20989878760298, "alt_km": 756.8106644028403, "timestamp": "2025-12-02T10:50:47.672997+00:00", "meta": {"OBJECT_NAME": "COSMOS 2251 DEB", "OBJECT_ID": "1993-036AZG", "EPOCH": "2025-12-01T07:38:33.152928", "MEAN_MOTION": 14.36046491, "ECCENTRICITY": 0.00444999, "INCLINATION": 74.0125, "RA_OF_ASC_NODE": 327.8249, "ARG_OF_PERICENTER": 100.1447, "MEAN_ANOMALY": 322.345, "EPHEMERIS_TYPE": 0, "CLASSIFICATION_TYPE": "U", "NORAD_CAT_ID": 36379, "ELEMENT_SET_NO": 999, "REV_AT_EPOCH": 64664, "BSTAR": 0.00030822416, "MEAN_MOTION_DOT": 8.81e-06, "MEAN_MOTION_DDOT": 0}, "tle": {"line1": "1 36379U 93036AZG 25335.31843927  .00000881  00000+0  30822-3 0  9998", "line2": "2 36379  74.0125 327.8249 0044499 100.1447 322.3450 14.36046491646644"}}, "geometry": {"type": "Point", "coordinates": [140.20989878760298, 18.584563832257682]}}]}